KUIPER-00513            
1 69598U 26140G   26190.61253992  .00026350  00000+0  69986-3 0  9991
2 69598  51.8820 290.2737 0007047 316.5040  43.5391 15.38069388  4684
KUIPER-00516            
1 69599U 26140H   26190.61880120  .00012103  00000+0  33370-3 0  9990
2 69599  51.8784 290.3069 0006835 334.1487  25.9157 15.37505084  4689
KUIPER-00517            
1 69600U 26140J   26191.76879797  .00036214  00000+0  93389-3 0  9993
2 69600  51.8769 284.5171 0010548 276.2013  83.7773 15.38782213  4869
KUIPER-00520            
1 69601U 26140K   26190.61986370  .00026029  00000+0  70279-3 0  9999
2 69601  51.8793 290.3215 0006880 333.8181  26.2457 15.37569154  4688
KUIPER-00522            
1 69602U 26140L   26191.76507968  .00017206  00000+0  45258-3 0  9995
2 69602  51.8779 284.4982 0013177 248.4220 111.5363 15.38590332  4867
KUIPER-00528            
1 69603U 26140M   26190.62200721  .00024351  00000+0  66169-3 0  9990
2 69603  51.8764 290.3271 0005926 340.6948  19.3813 15.37415170  4684
KUIPER-00532            
1 69604U 26140N   26191.73572689  .00001390  00000+0  48974-4 0  9992
2 69604  51.8765 285.0357 0005524  15.1321 344.9829 15.36637791  4852
KUIPER-00533            
1 69605U 26140P   26190.60899255  .00012480  00000+0  33629-3 0  9991
2 69605  51.8775 290.2427 0007954 306.5126  53.5128 15.38181942  4689
KUIPER-00534            
1 69606U 26140Q   26191.76016688  .00018450  00000+0  48352-3 0  9993
2 69606  51.8812 284.4724 0013568 247.7189 112.2360 15.38647112  4867
KUIPER-00537            
1 69607U 26140R   26191.75295227  .00017610  00000+0  53186-3 0  9999
2 69607  51.8775 285.1573 0010811  40.3192 319.8593 15.34281454  4856
KUIPER-00538            
1 69608U 26140S   26191.78755763  .00022003  00000+0  59406-3 0  9992
2 69608  51.8801 284.6464 0006367 326.1928  33.8652 15.37674850  4862
KUIPER-00540            
1 69609U 26140T   26191.60221450  .00018092  00000+0  50281-3 0  9990
2 69609  51.8833 285.6586 0006428  10.6370 349.4751 15.36908561  4839
KUIPER-00541            
1 69610U 26140U   26191.77848110  .00017654  00000+0  46807-3 0  9990
2 69610  51.8789 284.5871 0007704 305.5272  54.4996 15.38379378  4868
KUIPER-00542            
1 69611U 26140V   26191.77692769  .00023837  00000+0  63000-3 0  9992
2 69611  51.8786 284.5729 0007549 285.3956  74.6197 15.38276853  4860
KUIPER-00543            
1 69612U 26140W   26190.63093524  .00011141  00000+0  31556-3 0  9997
2 69612  51.8763 290.3813 0007703  16.9946 343.1297 15.36747809  4681
KUIPER-00544            
1 69613U 26140X   26191.78109487  .00027485  00000+0  72796-3 0  9990
2 69613  51.8812 284.6053 0007076 308.8347  51.2008 15.38131723  4861
KUIPER-00546            
1 69614U 26140Y   26191.76096485  .00030938  00000+0  79775-3 0  9993
2 69614  51.8776 284.4708 0014464 245.8653 114.0823 15.38814926  4861
KUIPER-00547            
1 69615U 26140Z   26191.77451656  .00017472  00000+0  47100-3 0  9995
2 69615  51.8821 284.5670 0010813 274.6951  85.2801 15.37847980  4867
KUIPER-00549            
1 69616U 26140AA  26191.79328512  .00028424  00000+0  77307-3 0  9993
2 69616  51.8776 284.6776 0007957   0.6549 359.4447 15.37287706  4866
KUIPER-00550            
1 69617U 26140AB  26190.85001609 -.00075643  00000+0 -23442-2 0  9992
2 69617  51.8790 289.5986 0007274  38.0407 322.1091 15.33047749  4713
KUIPER-00551            
1 69618U 26140AC  26191.76754649  .00031830  00000+0  83278-3 0  9995
2 69618  51.8758 284.5105 0012348 254.2975 105.6650 15.38381561  4865
KUIPER-00554            
1 69619U 26140AD  26191.25298191  .00022076  00000+0  59105-3 0  9999
2 69619  51.8775 287.0639 0010891 274.9137  85.0606 15.37895633  4787
KUIPER-00555            
1 69620U 26140AE  26191.77007604 -.00057717  00000+0 -15269-2 0  9999
2 69620  51.8822 284.5241 0011295 253.2646 106.7102 15.37809087  4866
KUIPER-00556            
1 69621U 26140AF  26191.25026391  .00020618  00000+0  54617-3 0  9996
2 69621  51.8812 287.0516 0011650 251.0389 108.9336 15.38260697  4787
KUIPER-00557            
1 69622U 26140AG  26191.77749363  .00015968  00000+0  43621-3 0  9990
2 69622  51.8794 284.5803 0009810 280.2133  79.7748 15.37516845  4863
KUIPER-00560            
1 69623U 26140AH  26191.57604172  .00029128  00000+0  75380-3 0  9997
2 69623  51.8781 285.4808 0008505 293.7135  66.2960 15.38803489  4834
KUIPER-00561            
1 69624U 26140AJ  26191.25379120  .00021594  00000+0  56479-3 0  9992
2 69624  51.8821 287.0794 0008110 293.2180  66.7953 15.38655455  4788
KUIPER-00564            
1 69625U 26140AK  26191.33336806 -.00001914  00000+0 -40894-4 0  9997
2 69625  51.8816 286.6867 0009261 280.2463 161.3962 15.37260467  4042
KUIPER-00567            
1 69626U 26140AL  26191.76783135  .00213007  00000+0  54503-2 0  9992
2 69626  51.8786 284.5160 0014214 269.5283  90.4076 15.37993440  4868
KUIPER-00573            
1 69627U 26140AM  26191.78107899  .00017777  00000+0  48619-3 0  9990
2 69627  51.8780 284.5973 0009339 267.6169  92.3748 15.37401065  4863
